ONEWEB-0118             
1 47264U 20100G   23262.34629214  .00000160  00000+0  40944-3 0  9992
2 47264  87.9066 189.8030 0001346  61.4828 298.6436 13.12443415133310
ONEWEB-0119             
1 47265U 20100H   23262.83122064 -.00000334  00000+0 -96379-3 0  9996
2 47265  87.9071 189.7445 0002098  74.8841 285.2519 13.12444714133355
ONEWEB-0120             
1 47266U 20100J   23262.78570823  .00000331  00000+0  88474-3 0  9993
2 47266  87.9069 189.7427 0001776  70.2752 289.8568 13.12440286133372
ONEWEB-0121             
1 47267U 20100K   23262.76770879 -.00000149  00000+0 -44822-3 0  9993
2 47267  87.9067 189.7471 0002066  78.1862 281.9499 13.12444101133288
ONEWEB-0122             
1 47268U 20100L   23262.07521468 -.00000028  00000+0 -11429-3 0  9999
2 47268  87.9066 189.8864 0002063  67.9567 292.1781 13.12443985133108
ONEWEB-0123             
1 47269U 20100M   23262.07098358 -.00000104  00000+0 -32457-3 0  9996
2 47269  87.9068 189.8934 0001946  73.5164 286.6178 13.12443729133243
ONEWEB-0124             
1 47270U 20100N   23262.74440815 -.00000372  00000+0 -10685-2 0  9996
2 47270  87.9067 189.7575 0002251  79.1753 280.9628 13.12443317133217
ONEWEB-0125             
1 47271U 20100P   23262.33993433  .00000392  00000+0  10540-2 0  9991
2 47271  87.9003 189.8420 0001695  86.5710 273.5613 13.12444465133222
